[{"OBJECT_NAME":"STARLINK-30072","OBJECT_ID":"2023-113G","EPOCH":"2026-03-09T22:00:01.999584","MEAN_MOTION":15.21845813,"ECCENTRICITY":0.00018918,"INCLINATION":43.0018,"RA_OF_ASC_NODE":14.8738,"ARG_OF_PERICENTER":265.6814,"MEAN_ANOMALY":277.3738,"EPHEMERIS_TYPE":0,"CLASSIFICATION_TYPE":"U","NORAD_CAT_ID":57501,"ELEMENT_SET_NO":999,"REV_AT_EPOCH":578,"BSTAR":0.03440941,"MEAN_MOTION_DOT":0.00857116,"MEAN_MOTION_DDOT":0},{"OBJECT_NAME":"DELTA 2 DEB [DPAF]","OBJECT_ID":"2006-016D","EPOCH":"2026-03-09T21:07:54.254784","MEAN_MOTION":15.23406385,"ECCENTRICITY":0.00032182,"INCLINATION":98.3285,"RA_OF_ASC_NODE":343.8839,"ARG_OF_PERICENTER":354.4951,"MEAN_ANOMALY":5.6247,"EPHEMERIS_TYPE":0,"CLASSIFICATION_TYPE":"U","NORAD_CAT_ID":29110,"ELEMENT_SET_NO":999,"REV_AT_EPOCH":6863,"BSTAR":0.0017599055,"MEAN_MOTION_DOT":0.00042014,"MEAN_MOTION_DDOT":0}]
